start=new Date('2023-01-22T00:00:00.000Z').valueOf();
sats=[{"REV_AT_EPOCH":"3998","SITE":"AFETR","EPOCH":"2023-01-21T15:03:14.346432","PERIOD":"95.437","ARG_OF_PERICENTER":"93.7964","ELEMENT_SET_NO":"999","NORAD_CAT_ID":"52465","BSTAR":"0.00015276000000","MEAN_MOTION":"15.08842961","OBJECT_NAME":"STARLINK-3863","MEAN_MOTION_DDOT":"0.0000000000000","PERIAPSIS":"538.254","RA_OF_ASC_NODE":"140.5346","TIME_SYSTEM":"UTC","TLE_LINE1":"1 52465U 22049Q   23021.62724938  .00002144  00000-0  15276-3 0  9993","DECAY_DATE":null,"MEAN_MOTION_DOT":"0.00002144","RCS_SIZE":"LARGE","INCLINATION":"53.2196","FILE":"3757297","ECCENTRICITY":"0.00021430","CLASSIFICATION_TYPE":"U","MEAN_ANOMALY":"266.3273","OBJECT_ID":"2022-049Q","TLE_LINE2":"2 52465  53.2196 140.5346 0002143  93.7964 266.3273 15.08842961 39983","SEMIMAJOR_AXIS":"6917.871","CENTER_NAME":"EARTH","EPHEMERIS_TYPE":"0","MEAN_ELEMENT_THEORY":"SGP4","REF_FRAME":"TEME","LAUNCH_DATE":"2022-05-06","APOAPSIS":"541.219","OBJECT_TYPE":"PAYLOAD","COUNTRY_CODE":"US","GP_ID":"223580805"},{"BSTAR":"0.00009202400000","MEAN_MOTION":"15.08834595","MEAN_MOTION_DDOT":"0.0000000000000","OBJECT_NAME":"STARLINK-3840","TIME_SYSTEM":"UTC","RA_OF_ASC_NODE":"150.5505","PERIAPSIS":"537.855","TLE_LINE1":"1 52466U 22049R   23021.62265360  .00001176  00000-0  92024-4 0  9994","MEAN_MOTION_DOT":"0.00001176","DECAY_DATE":null,"INCLINATION":"53.2180","RCS_SIZE":"LARGE","SITE":"AFETR","REV_AT_EPOCH":"3984","EPOCH":"2023-01-21T14:56:37.271040","PERIOD":"95.438","ARG_OF_PERICENTER":"68.9590","ELEMENT_SET_NO":"999","NORAD_CAT_ID":"52466","MEAN_ELEMENT_THEORY":"SGP4","CENTER_NAME":"EARTH","EPHEMERIS_TYPE":"0","APOAPSIS":"541.669","LAUNCH_DATE":"2022-05-06","REF_FRAME":"TEME","OBJECT_TYPE":"PAYLOAD","GP_ID":"223580549","COUNTRY_CODE":"US","FILE":"3757296","ECCENTRICITY":"0.00027570","CLASSIFICATION_TYPE":"U","TLE_LINE2":"2 52466  53.2180 150.5505 0002757  68.9590 291.1697 15.08834595 39840","MEAN_ANOMALY":"291.1697","OBJECT_ID":"2022-049R","SEMIMAJOR_AXIS":"6917.897"},{"MEAN_MOTION":"15.08838000","BSTAR":"0.00011030000000","TIME_SYSTEM":"UTC","RA_OF_ASC_NODE":"151.7271","PERIAPSIS":"538.794","MEAN_MOTION_DDOT":"0.0000000000000","OBJECT_NAME":"STARLINK-3873","TLE_LINE1":"1 52467U 22049S   23021.36137125  .00001468  00000-0  11030-3 0  9994","INCLINATION":"53.2164","RCS_SIZE":"LARGE","MEAN_MOTION_DOT":"0.00001468","DECAY_DATE":null,"EPOCH":"2023-01-21T08:40:22.476000","SITE":"AFETR","REV_AT_EPOCH":"3980","ARG_OF_PERICENTER":"70.1166","PERIOD":"95.438","ELEMENT_SET_NO":"999","NORAD_CAT_ID":"52467","APOAPSIS":"540.709","REF_FRAME":"TEME","LAUNCH_DATE":"2022-05-06","MEAN_ELEMENT_THEORY":"SGP4","CENTER_NAME":"EARTH","EPHEMERIS_TYPE":"0","OBJECT_TYPE":"PAYLOAD","GP_ID":"223574864","COUNTRY_CODE":"US","FILE":"3757037","ECCENTRICITY":"0.00013840","CLASSIFICATION_TYPE":"U","SEMIMAJOR_AXIS":"6917.887","TLE_LINE2":"2 52467  53.2164 151.7271 0001384  70.1166 289.9976 15.08838000 39801","MEAN_ANOMALY":"289.9976","OBJECT_ID":"2022-049S"},{"FILE":"3757296","ECCENTRICITY":"0.00018790","CLASSIFICATION_TYPE":"U","SEMIMAJOR_AXIS":"6917.851","TLE_LINE2":"2 52468  53.2182 150.3078 0001879  73.1088 287.0110 15.08849467 39850","MEAN_ANOMALY":"287.0110","OBJECT_ID":"2022-049T","APOAPSIS":"541.016","REF_FRAME":"TEME","LAUNCH_DATE":"2022-05-06","MEAN_ELEMENT_THEORY":"SGP4","CENTER_NAME":"EARTH","EPHEMERIS_TYPE":"0","OBJECT_TYPE":"PAYLOAD","COUNTRY_CODE":"US","GP_ID":"223580797","EPOCH":"2023-01-21T16:16:05.492640","SITE":"AFETR","REV_AT_EPOCH":"3985","ARG_OF_PERICENTER":"73.1088","PERIOD":"95.437","ELEMENT_SET_NO":"999","NORAD_CAT_ID":"52468","BSTAR":"0.00009189700000","MEAN_MOTION":"15.08849467","RA_OF_ASC_NODE":"150.3078","TIME_SYSTEM":"UTC","PERIAPSIS":"538.417","MEAN_MOTION_DDOT":"0.0000000000000","OBJECT_NAME":"STARLINK-3864","TLE_LINE1":"1 52468U 22049T   23021.67784135  .00001175  00000-0  91897-4 0  9993","INCLINATION":"53.2182","RCS_SIZE":"LARGE","MEAN_MOTION_DOT":"0.00001175","DECAY_DATE":null},{"TLE_LINE1":"1 52469U 22049U   23021.42024204  .00012321  00000-0  79085-3 0  9990","MEAN_MOTION_DOT":"0.00012321","DECAY_DATE":null,"INCLINATION":"53.2157","RCS_SIZE":"LARGE","BSTAR":"0.00079085000000","MEAN_MOTION":"15.08840282","MEAN_MOTION_DDOT":"0.0000000000000","OBJECT_NAME":"STARLINK-3828","TIME_SYSTEM":"UTC","RA_OF_ASC_NODE":"151.4604","PERIAPSIS":"538.928","PERIOD":"95.438","ARG_OF_PERICENTER":"92.5977","ELEMENT_SET_NO":"999","NORAD_CAT_ID":"52469","SITE":"AFETR","REV_AT_EPOCH":"3981","EPOCH":"2023-01-21T10:05:08.912256","GP_ID":"223574658","COUNTRY_CODE":"US","MEAN_ELEMENT_THEORY":"SGP4","CENTER_NAME":"EARTH","EPHEMERIS_TYPE":"0","APOAPSIS":"540.562","REF_FRAME":"TEME","LAUNCH_DATE":"2022-05-06","OBJECT_TYPE":"PAYLOAD","CLASSIFICATION_TYPE":"U","TLE_LINE2":"2 52469  53.2157 151.4604 0001181  92.5977 267.5151 15.08840282 39818","OBJECT_ID":"2022-049U","MEAN_ANOMALY":"267.5151","SEMIMAJOR_AXIS":"6917.880","FILE":"3757037","ECCENTRICITY":"0.00011810"},{"ECCENTRICITY":"0.00018160","FILE":"3757296","SEMIMAJOR_AXIS":"6917.868","OBJECT_ID":"2022-049V","MEAN_ANOMALY":"288.3789","TLE_LINE2":"2 52470  53.2162 150.3407 0001816  71.7400 288.3789 15.08844138 39856","CLASSIFICATION_TYPE":"U","OBJECT_TYPE":"PAYLOAD","REF_FRAME":"TEME","LAUNCH_DATE":"2022-05-06","APOAPSIS":"540.989","EPHEMERIS_TYPE":"0","CENTER_NAME":"EARTH","MEAN_ELEMENT_THEORY":"SGP4","GP_ID":"223580801","COUNTRY_CODE":"US","EPOCH":"2023-01-21T16:05:30.206400","REV_AT_EPOCH":"3985","SITE":"AFETR","NORAD_CAT_ID":"52470","ELEMENT_SET_NO":"999","ARG_OF_PERICENTER":"71.7400","PERIOD":"95.437","PERIAPSIS":"538.476","TIME_SYSTEM":"UTC","RA_OF_ASC_NODE":"150.3407","OBJECT_NAME":"STARLINK-3859","MEAN_MOTION_DDOT":"0.0000000000000","BSTAR":"0.00013799000000","MEAN_MOTION":"15.08844138","RCS_SIZE":"LARGE","INCLINATION":"53.2162","DECAY_DATE":null,"MEAN_MOTION_DOT":"0.00001909","TLE_LINE1":"1 52470U 22049V   23021.67048850  .00001909  00000-0  13799-3 0  9992"},{"RA_OF_ASC_NODE":"151.7707","TIME_SYSTEM":"UTC","PERIAPSIS":"538.223","MEAN_MOTION_DDOT":"0.0000000000000","OBJECT_NAME":"STARLINK-3862","BSTAR":"0.00012783000000","MEAN_MOTION":"15.08838879","INCLINATION":"53.2156","RCS_SIZE":"LARGE","MEAN_MOTION_DOT":"0.00001747","DECAY_DATE":null,"TLE_LINE1":"1 52471U 22049W   23021.35033050  .00001747  00000-0  12783-3 0  9996","EPOCH":"2023-01-21T08:24:28.555200","SITE":"AFETR","REV_AT_EPOCH":"3980","NORAD_CAT_ID":"52471","ELEMENT_SET_NO":"999","ARG_OF_PERICENTER":"75.1730","PERIOD":"95.438","OBJECT_TYPE":"PAYLOAD","APOAPSIS":"541.274","LAUNCH_DATE":"2022-05-06","REF_FRAME":"TEME","MEAN_ELEMENT_THEORY":"SGP4","EPHEMERIS_TYPE":"0","CENTER_NAME":"EARTH","COUNTRY_CODE":"US","GP_ID":"223574881","ECCENTRICITY":"0.00022050","FILE":"3757042","SEMIMAJOR_AXIS":"6917.884","TLE_LINE2":"2 52471  53.2156 151.7707 0002205  75.1730 284.9506 15.08838879 39804","MEAN_ANOMALY":"284.9506","OBJECT_ID":"2022-049W","CLASSIFICATION_TYPE":"U"},{"GP_ID":"223569024","COUNTRY_CODE":"US","APOAPSIS":"541.357","LAUNCH_DATE":"2022-05-06","REF_FRAME":"TEME","MEAN_ELEMENT_THEORY":"SGP4","CENTER_NAME":"EARTH","EPHEMERIS_TYPE":"0","OBJECT_TYPE":"PAYLOAD","CLASSIFICATION_TYPE":"U","SEMIMAJOR_AXIS":"6917.894","TLE_LINE2":"2 52472  53.2169 152.7382 0002310  70.3947 289.7295 15.08835703 39770","MEAN_ANOMALY":"289.7295","OBJECT_ID":"2022-049X","FILE":"3756778","ECCENTRICITY":"0.00023100","TLE_LINE1":"1 52472U 22049X   23021.13689218  .00000558  00000-0  53181-4 0  9993","INCLINATION":"53.2169","RCS_SIZE":"LARGE","MEAN_MOTION_DOT":"0.00000558","DECAY_DATE":null,"BSTAR":"0.00005318100000","MEAN_MOTION":"15.08835703","RA_OF_ASC_NODE":"152.7382","TIME_SYSTEM":"UTC","PERIAPSIS":"538.160","MEAN_MOTION_DDOT":"0.0000000000000","OBJECT_NAME":"STARLINK-3881","ARG_OF_PERICENTER":"70.3947","PERIOD":"95.438","ELEMENT_SET_NO":"999","NORAD_CAT_ID":"52472","EPOCH":"2023-01-21T03:17:07.484352","SITE":"AFETR","REV_AT_EPOCH":"3977"},{"OBJECT_TYPE":"PAYLOAD","APOAPSIS":"541.503","REF_FRAME":"TEME","LAUNCH_DATE":"2022-05-06","MEAN_ELEMENT_THEORY":"SGP4","CENTER_NAME":"EARTH","EPHEMERIS_TYPE":"0","COUNTRY_CODE":"US","GP_ID":"223574701","ECCENTRICITY":"0.00025180","FILE":"3757040","SEMIMAJOR_AXIS":"6917.896","TLE_LINE2":"2 52473  53.2168 151.8173 0002518  61.8318 298.2929 15.08834946 39806","MEAN_ANOMALY":"298.2929","OBJECT_ID":"2022-049Y","CLASSIFICATION_TYPE":"U","TIME_SYSTEM":"UTC","RA_OF_ASC_NODE":"151.8173","PERIAPSIS":"538.019","MEAN_MOTION_DDOT":"0.0000000000000","OBJECT_NAME":"STARLINK-3879","BSTAR":"0.00010162000000","MEAN_MOTION":"15.08834946","INCLINATION":"53.2168","RCS_SIZE":"LARGE","MEAN_MOTION_DOT":"0.00001329","DECAY_DATE":null,"TLE_LINE1":"1 52473U 22049Y   23021.34297497  .00001329  00000-0  10162-3 0  9999","EPOCH":"2023-01-21T08:13:53.037408","SITE":"AFETR","REV_AT_EPOCH":"3980","ELEMENT_SET_NO":"999","NORAD_CAT_ID":"52473","ARG_OF_PERICENTER":"61.8318","PERIOD":"95.438"},{"CLASSIFICATION_TYPE":"U","SEMIMAJOR_AXIS":"6917.847","OBJECT_ID":"2022-049Z","MEAN_ANOMALY":"288.3709","TLE_LINE2":"2 52474  53.2172 140.5608 0002152  71.7517 288.3709 15.08851055 39980","FILE":"3757296","ECCENTRICITY":"0.00021520","GP_ID":"223580542","COUNTRY_CODE":"US","LAUNCH_DATE":"2022-05-06","REF_FRAME":"TEME","APOAPSIS":"541.200","CENTER_NAME":"EARTH","EPHEMERIS_TYPE":"0","MEAN_ELEMENT_THEORY":"SGP4","OBJECT_TYPE":"PAYLOAD","ARG_OF_PERICENTER":"71.7517","PERIOD":"95.437","ELEMENT_SET_NO":"999","NORAD_CAT_ID":"52474","EPOCH":"2023-01-21T14:52:38.290368","REV_AT_EPOCH":"3998","SITE":"AFETR","TLE_LINE1":"1 52474U 22049Z   23021.61988762  .00012188  00000-0  78232-3 0  9999","RCS_SIZE":"LARGE","INCLINATION":"53.2172","DECAY_DATE":null,"MEAN_MOTION_DOT":"0.00012188","BSTAR":"0.00078232000000","MEAN_MOTION":"15.08851055","PERIAPSIS":"538.223","RA_OF_ASC_NODE":"140.5608","TIME_SYSTEM":"UTC","OBJECT_NAME":"STARLINK-3855","MEAN_MOTION_DDOT":"0.0000000000000"}];
